{
    "links": {
        "self": "http://www.neowsapp.com/rest/v1/neo/3761731?api_key=iIulBulltgU6a56xZRHN4H3l9WmuAYTsLGpBGhQ2"
    },
    "id": "3761731",
    "neo_reference_id": "3761731",
    "name": "(2016 UQ36)",
    "designation": "2016 UQ36",
    "nasa_jpl_url": "http://ssd.jpl.nasa.gov/sbdb.cgi?sstr=3761731",
    "absolute_magnitude_h": 27.6,
    "estimated_diameter": {
        "kilometers": {
            "estimated_diameter_min": 0.0080270317,
            "estimated_diameter_max": 0.0179489885
        },
        "meters": {
            "estimated_diameter_min": 8.0270316728,
            "estimated_diameter_max": 17.948988478
        },
        "miles": {
            "estimated_diameter_min": 0.0049877647,
            "estimated_diameter_max": 0.0111529809
        },
        "feet": {
            "estimated_diameter_min": 26.3354065935,
            "estimated_diameter_max": 58.8877593581
        }
    },
    "is_potentially_hazardous_asteroid": false,
    "close_approach_data": [
        {
            "close_approach_date": "2016-10-24",
            "close_approach_date_full": "2016-Oct-24 22:04",
            "epoch_date_close_approach": 1477346640000,
            "relative_velocity": {
                "kilometers_per_second": "12.5724882849",
                "kilometers_per_hour": "45260.9578257779",
                "miles_per_hour": "28123.3990445785"
            },
            "miss_distance": {
                "astronomical": "0.005263786",
                "lunar": "2.047612754",
                "kilometers": "787451.17373582",
                "miles": "489299.470241516"
            },
            "orbiting_body": "Moon"
        },
        {
            "close_approach_date": "2016-10-24",
            "close_approach_date_full": "2016-Oct-24 22:20",
            "epoch_date_close_approach": 1477347600000,
            "relative_velocity": {
                "kilometers_per_second": "11.5828425639",
                "kilometers_per_hour": "41698.2332300306",
                "miles_per_hour": "25909.6605311821"
            },
            "miss_distance": {
                "astronomical": "0.0026533326",
                "lunar": "1.0321463814",
                "kilometers": "396932.905361562",
                "miles": "246642.6704190756"
            },
            "orbiting_body": "Earth"
        },
        {
            "close_approach_date": "2021-06-16",
            "close_approach_date_full": "2021-Jun-16 15:27",
            "epoch_date_close_approach": 1623857220000,
            "relative_velocity": {
                "kilometers_per_second": "22.9537550771",
                "kilometers_per_hour": "82633.5182776162",
                "miles_per_hour": "51345.2547319999"
            },
            "miss_distance": {
                "astronomical": "0.4070291832",
                "lunar": "158.3343522648",
                "kilometers": "60890698.834559784",
                "miles": "37835725.7898776592"
            },
            "orbiting_body": "Earth"
        },
        {
            "close_approach_date": "2038-06-22",
            "close_approach_date_full": "2038-Jun-22 13:05",
            "epoch_date_close_approach": 2160824700000,
            "relative_velocity": {
                "kilometers_per_second": "20.0924612926",
                "kilometers_per_hour": "72332.8606534709",
                "miles_per_hour": "44944.8266654858"
            },
            "miss_distance": {
                "astronomical": "0.3107531341",
                "lunar": "120.8829691649",
                "kilometers": "46488006.957184367",
                "miles": "28886308.0472915846"
            },
            "orbiting_body": "Earth"
        },
        {
            "close_approach_date": "2106-10-31",
            "close_approach_date_full": "2106-Oct-31 23:27",
            "epoch_date_close_approach": 4318010820000,
            "relative_velocity": {
                "kilometers_per_second": "12.8272293367",
                "kilometers_per_hour": "46178.025612192",
                "miles_per_hour": "28693.229303309"
            },
            "miss_distance": {
                "astronomical": "0.0484910429",
                "lunar": "18.8630156881",
                "kilometers": "7254156.731918623",
                "miles": "4507523.9765500774"
            },
            "orbiting_body": "Earth"
        }
    ],
    "orbital_data": {
        "orbit_id": "6",
        "orbit_determination_date": "2018-05-10 06:26:04",
        "first_observation_date": "2016-10-26",
        "last_observation_date": "2016-11-05",
        "data_arc_in_days": 10,
        "observations_used": 45,
        "orbit_uncertainty": "7",
        "minimum_orbit_intersection": ".00051535",
        "jupiter_tisserand_invariant": "3.890",
        "epoch_osculation": "2459000.5",
        "eccentricity": ".5087671139208426",
        "semi_major_axis": "1.807281627561796",
        "inclination": "4.666835957647817",
        "ascending_node_longitude": "211.4285093768731",
        "orbital_period": "887.4362756865621",
        "perihelion_distance": ".887796169865018",
        "perihelion_argument": "132.7410883522067",
        "aphelion_distance": "2.726767085258575",
        "perihelion_time": "2459425.848377941446",
        "mean_anomaly": "187.4519306296605",
        "mean_motion": ".4056629302441881",
        "equinox": "J2000",
        "orbit_class": {
            "orbit_class_type": "APO",
            "orbit_class_description": "Near-Earth asteroid orbits which cross the Earth’s orbit similar to that of 1862 Apollo",
            "orbit_class_range": "a (semi-major axis) > 1.0 AU; q (perihelion) < 1.017 AU"
        }
    },
    "is_sentry_object": false
}